{
  "type": "FeatureCollection",
  "features": [
    {
      "type": "Feature",
      "properties": {
        "norad_id": 42989,
        "name": "SKYSAT-C9",
        "group": "resource",
        "lat": 54.41384344428317,
        "lon": 116.70553241156523,
        "alt_km": 444.8580376927084,
        "timestamp": "2025-12-22T20:43:45.500366+00:00",
        "meta_object_name": "SKYSAT-C9",
        "meta_object_id": "2017-068C",
        "meta_epoch": "2025-12-22T07:59:05.940096",
        "meta_mean_motion": 15.36278923,
        "meta_eccentricity": 0.00104177,
        "meta_inclination": 97.4197,
        "meta_ra_of_asc_node": 126.6635,
        "meta_arg_of_pericenter": 57.0944,
        "meta_mean_anomaly": 303.1301,
        "meta_ephemeris_type": 0,
        "meta_classification_type": "U",
        "meta_norad_cat_id": 42989,
        "meta_element_set_no": 999,
        "meta_rev_at_epoch": 45555,
        "meta_bstar": 0.0004065654,
        "meta_mean_motion_dot": 0.00014331,
        "meta_mean_motion_ddot": 0,
        "tle_line1": "1 42989U 17068C   25356.33270764  .00014331  00000+0  40657-3 0  9993",
        "tle_line2": "2 42989  97.4197 126.6635 0010417  57.0944 303.1301 15.36278923455553"
      },
      "geometry": {
        "type": "Point",
        "coordinates": [
          116.70553241156523,
          54.41384344428317
        ]
      }
    },
    {
      "type": "Feature",
      "properties": {
        "norad_id": 42990,
        "name": "SKYSAT-C8",
        "group": "resource",
        "lat": -82.41875216959694,
        "lon": -154.46283718034803,
        "alt_km": 473.17558741910943,
        "timestamp": "2025-12-22T20:43:45.500377+00:00",
        "meta_object_name": "SKYSAT-C8",
        "meta_object_id": "2017-068D",
        "meta_epoch": "2025-12-21T21:37:05.479104",
        "meta_mean_motion": 15.33109138,
        "meta_eccentricity": 0.00010393,
        "meta_inclination": 97.4289,
        "meta_ra_of_asc_node": 125.9421,
        "meta_arg_of_pericenter": 294.8108,
        "meta_mean_anomaly": 65.3026,
        "meta_ephemeris_type": 0,
        "meta_classification_type": "U",
        "meta_norad_cat_id": 42990,
        "meta_element_set_no": 999,
        "meta_rev_at_epoch": 45511,
        "meta_bstar": 0.00035698248,
        "meta_mean_motion_dot": 0.00011344,
        "meta_mean_motion_ddot": 0,
        "tle_line1": "1 42990U 17068D   25355.90075786  .00011344  00000+0  35698-3 0  9994",
        "tle_line2": "2 42990  97.4289 125.9421 0001039 294.8108  65.3026 15.33109138455116"
      },
      "geometry": {
        "type": "Point",
        "coordinates": [
          -154.46283718034803,
          -82.41875216959694
        ]
      }
    },
    {
      "type": "Feature",
      "properties": {
        "norad_id": 42991,
        "name": "SKYSAT-C7",
        "group": "resource",
        "lat": 73.08988870090126,
        "lon": -26.63791272286648,
        "alt_km": 460.472022080884,
        "timestamp": "2025-12-22T20:43:45.500387+00:00",
        "meta_object_name": "SKYSAT-C7",
        "meta_object_id": "2017-068E",
        "meta_epoch": "2025-12-21T14:29:53.176416",
        "meta_mean_motion": 15.32498854,
        "meta_eccentricity": 0.0007098,
        "meta_inclination": 97.4298,
        "meta_ra_of_asc_node": 126.6779,
        "meta_arg_of_pericenter": 29.4906,
        "meta_mean_anomaly": 330.6735,
        "meta_ephemeris_type": 0,
        "meta_classification_type": "U",
        "meta_norad_cat_id": 42991,
        "meta_element_set_no": 999,
        "meta_rev_at_epoch": 45513,
        "meta_bstar": 0.00028728,
        "meta_mean_motion_dot": 8.944e-05,
        "meta_mean_motion_ddot": 0,
        "tle_line1": "1 42991U 17068E   25355.60408769  .00008944  00000+0  28728-3 0  9991",
        "tle_line2": "2 42991  97.4298 126.6779 0007098  29.4906 330.6735 15.32498854455132"
      },
      "geometry": {
        "type": "Point",
        "coordinates": [
          -26.63791272286648,
          73.08988870090126
        ]
      }
    },
    {
      "type": "Feature",
      "properties": {
        "norad_id": 42992,
        "name": "SKYSAT-C6",
        "group": "resource",
        "lat": -11.550161121819102,
        "lon": -53.15616031414507,
        "alt_km": 477.6922180282827,
        "timestamp": "2025-12-22T20:43:45.500397+00:00",
        "meta_object_name": "SKYSAT-C6",
        "meta_object_id": "2017-068F",
        "meta_epoch": "2025-12-22T08:55:14.322720",
        "meta_mean_motion": 15.31675748,
        "meta_eccentricity": 0.00048921,
        "meta_inclination": 97.4326,
        "meta_ra_of_asc_node": 127.8792,
        "meta_arg_of_pericenter": 56.5714,
        "meta_mean_anomaly": 303.5995,
        "meta_ephemeris_type": 0,
        "meta_classification_type": "U",
        "meta_norad_cat_id": 42992,
        "meta_element_set_no": 999,
        "meta_rev_at_epoch": 45523,
        "meta_bstar": 0.00038354996,
        "meta_mean_motion_dot": 0.00011662,
        "meta_mean_motion_ddot": 0,
        "tle_line1": "1 42992U 17068F   25356.37169355  .00011662  00000+0  38355-3 0  9990",
        "tle_line2": "2 42992  97.4326 127.8792 0004892  56.5714 303.5995 15.31675748455236"
      },
      "geometry": {
        "type": "Point",
        "coordinates": [
          -53.15616031414507,
          -11.550161121819102
        ]
      }
    },
    {
      "type": "Feature",
      "properties": {
        "norad_id": 43111,
        "name": "CARTOSAT-2F",
        "group": "resource",
        "lat": -28.97515638469526,
        "lon": -129.80702491481512,
        "alt_km": 514.345984269944,
        "timestamp": "2025-12-22T20:43:45.500407+00:00",
        "meta_object_name": "CARTOSAT-2F",
        "meta_object_id": "2018-004A",
        "meta_epoch": "2025-12-22T15:04:09.844608",
        "meta_mean_motion": 15.19221339,
        "meta_eccentricity": 0.00014343,
        "meta_inclination": 97.4305,
        "meta_ra_of_asc_node": 54.1053,
        "meta_arg_of_pericenter": 108.1005,
        "meta_mean_anomaly": 252.0386,
        "meta_ephemeris_type": 0,
        "meta_classification_type": "U",
        "meta_norad_cat_id": 43111,
        "meta_element_set_no": 999,
        "meta_rev_at_epoch": 44052,
        "meta_bstar": 0.00045679153,
        "meta_mean_motion_dot": 9.557e-05,
        "meta_mean_motion_ddot": 0,
        "tle_line1": "1 43111U 18004A   25356.62789172  .00009557  00000+0  45679-3 0  9995",
        "tle_line2": "2 43111  97.4305  54.1053 0001434 108.1005 252.0386 15.19221339440522"
      },
      "geometry": {
        "type": "Point",
        "coordinates": [
          -129.80702491481512,
          -28.97515638469526
        ]
      }
    },
    {
      "type": "Feature",
      "properties": {
        "norad_id": 43259,
        "name": "GAOFEN-1 02",
        "group": "resource",
        "lat": -36.967228457669044,
        "lon": -131.48092703698163,
        "alt_km": 645.6598170601792,
        "timestamp": "2025-12-22T20:43:45.500417+00:00",
        "meta_object_name": "GAOFEN-1 02",
        "meta_object_id": "2018-031A",
        "meta_epoch": "2025-12-22T14:52:06.945312",
        "meta_mean_motion": 14.76435609,
        "meta_eccentricity": 0.00024154,
        "meta_inclination": 98.0795,
        "meta_ra_of_asc_node": 54.4124,
        "meta_arg_of_pericenter": 178.9303,
        "meta_mean_anomaly": 181.1912,
        "meta_ephemeris_type": 0,
        "meta_classification_type": "U",
        "meta_norad_cat_id": 43259,
        "meta_element_set_no": 999,
        "meta_rev_at_epoch": 41664,
        "meta_bstar": 0.00017578358,
        "meta_mean_motion_dot": 1.171e-05,
        "meta_mean_motion_ddot": 0,
        "tle_line1": "1 43259U 18031A   25356.61952483  .00001171  00000+0  17578-3 0  9995",
        "tle_line2": "2 43259  98.0795  54.4124 0002415 178.9303 181.1912 14.76435609416645"
      },
      "geometry": {
        "type": "Point",
        "coordinates": [
          -131.48092703698163,
          -36.967228457669044
        ]
      }
    },
    {
      "type": "Feature",
      "properties": {
        "norad_id": 43260,
        "name": "GAOFEN-1 03",
        "group": "resource",
        "lat": -26.569468720254676,
        "lon": 58.60526774195709,
        "alt_km": 645.752108944992,
        "timestamp": "2025-12-22T20:43:45.500427+00:00",
        "meta_object_name": "GAOFEN-1 03",
        "meta_object_id": "2018-031B",
        "meta_epoch": "2025-12-22T14:20:40.885152",
        "meta_mean_motion": 14.76456029,
        "meta_eccentricity": 0.00016987,
        "meta_inclination": 98.0784,
        "meta_ra_of_asc_node": 54.2661,
        "meta_arg_of_pericenter": 269.494,
        "meta_mean_anomaly": 90.6075,
        "meta_ephemeris_type": 0,
        "meta_classification_type": "U",
        "meta_norad_cat_id": 43260,
        "meta_element_set_no": 999,
        "meta_rev_at_epoch": 41663,
        "meta_bstar": 0.00012727644,
        "meta_mean_motion_dot": 8.34e-06,
        "meta_mean_motion_ddot": 0,
        "tle_line1": "1 43260U 18031B   25356.59769543  .00000834  00000+0  12728-3 0  9994",
        "tle_line2": "2 43260  98.0784  54.2661 0001698 269.4940  90.6075 14.76456029416636"
      },
      "geometry": {
        "type": "Point",
        "coordinates": [
          58.60526774195709,
          -26.569468720254676
        ]
      }
    }
  ]
}